{
  "type": "FeatureCollection",
  "features": [
    {
      "type": "Feature",
      "properties": {
        "norad_id": 34056,
        "name": "COSMOS 2251 DEB",
        "group": "cosmos-2251-debris",
        "lat": -2.3328125322737767,
        "lon": -112.1868457060353,
        "alt_km": 792.9316207974198,
        "timestamp": "2025-12-17T21:39:46.083323+00:00",
        "meta_object_name": "COSMOS 2251 DEB",
        "meta_object_id": "1993-036JT",
        "meta_epoch": "2025-12-17T14:35:52.552896",
        "meta_mean_motion": 14.20574848,
        "meta_eccentricity": 0.01238254,
        "meta_inclination": 74.0598,
        "meta_ra_of_asc_node": 67.6722,
        "meta_arg_of_pericenter": 114.2207,
        "meta_mean_anomaly": 1.9443,
        "meta_ephemeris_type": 0,
        "meta_classification_type": "U",
        "meta_norad_cat_id": 34056,
        "meta_element_set_no": 999,
        "meta_rev_at_epoch": 86480,
        "meta_bstar": 0.00051374605,
        "meta_mean_motion_dot": 1.169e-05,
        "meta_mean_motion_ddot": 0,
        "tle_line1": "1 34056U 93036JT  25351.60824714  .00001169  00000+0  51375-3 0  9997",
        "tle_line2": "2 34056  74.0598  67.6722 0123825 114.2207   1.9443 14.20574848864801"
      },
      "geometry": {
        "type": "Point",
        "coordinates": [
          -112.1868457060353,
          -2.3328125322737767
        ]
      }
    },
    {
      "type": "Feature",
      "properties": {
        "norad_id": 34058,
        "name": "COSMOS 2251 DEB",
        "group": "cosmos-2251-debris",
        "lat": -36.35655205954562,
        "lon": 1.9924918946034658,
        "alt_km": 884.1167519000037,
        "timestamp": "2025-12-17T21:39:46.083332+00:00",
        "meta_object_name": "COSMOS 2251 DEB",
        "meta_object_id": "1993-036JV",
        "meta_epoch": "2025-12-17T15:42:14.283072",
        "meta_mean_motion": 13.56083776,
        "meta_eccentricity": 0.03777391,
        "meta_inclination": 73.9314,
        "meta_ra_of_asc_node": 170.1463,
        "meta_arg_of_pericenter": 164.4504,
        "meta_mean_anomaly": 278.4532,
        "meta_ephemeris_type": 0,
        "meta_classification_type": "U",
        "meta_norad_cat_id": 34058,
        "meta_element_set_no": 999,
        "meta_rev_at_epoch": 83209,
        "meta_bstar": 0.0006152963,
        "meta_mean_motion_dot": 6.62e-06,
        "meta_mean_motion_ddot": 0,
        "tle_line1": "1 34058U 93036JV  25351.65433198  .00000662  00000+0  61530-3 0  9997",
        "tle_line2": "2 34058  73.9314 170.1463 0377739 164.4504 278.4532 13.56083776832090"
      },
      "geometry": {
        "type": "Point",
        "coordinates": [
          1.9924918946034658,
          -36.35655205954562
        ]
      }
    },
    {
      "type": "Feature",
      "properties": {
        "norad_id": 34059,
        "name": "COSMOS 2251 DEB",
        "group": "cosmos-2251-debris",
        "lat": 67.67731658990313,
        "lon": -139.26462199950782,
        "alt_km": 722.1503091303957,
        "timestamp": "2025-12-17T21:39:46.083342+00:00",
        "meta_object_name": "COSMOS 2251 DEB",
        "meta_object_id": "1993-036JW",
        "meta_epoch": "2025-12-17T15:00:30.823200",
        "meta_mean_motion": 14.52975482,
        "meta_eccentricity": 0.00185344,
        "meta_inclination": 74.0365,
        "meta_ra_of_asc_node": 177.0596,
        "meta_arg_of_pericenter": 253.8813,
        "meta_mean_anomaly": 170.6742,
        "meta_ephemeris_type": 0,
        "meta_classification_type": "U",
        "meta_norad_cat_id": 34059,
        "meta_element_set_no": 999,
        "meta_rev_at_epoch": 88530,
        "meta_bstar": 0.00056859438,
        "meta_mean_motion_dot": 2.323e-05,
        "meta_mean_motion_ddot": 0,
        "tle_line1": "1 34059U 93036JW  25351.62535675  .00002323  00000+0  56859-3 0  9992",
        "tle_line2": "2 34059  74.0365 177.0596 0018534 253.8813 170.6742 14.52975482885302"
      },
      "geometry": {
        "type": "Point",
        "coordinates": [
          -139.26462199950782,
          67.67731658990313
        ]
      }
    },
    {
      "type": "Feature",
      "properties": {
        "norad_id": 34061,
        "name": "COSMOS 2251 DEB",
        "group": "cosmos-2251-debris",
        "lat": -6.94522575132709,
        "lon": 75.844425218645,
        "alt_km": 772.4941920896454,
        "timestamp": "2025-12-17T21:39:46.083351+00:00",
        "meta_object_name": "COSMOS 2251 DEB",
        "meta_object_id": "1993-036JY",
        "meta_epoch": "2025-12-17T04:52:36.473952",
        "meta_mean_motion": 14.40367208,
        "meta_eccentricity": 0.00206736,
        "meta_inclination": 74.0391,
        "meta_ra_of_asc_node": 255.1389,
        "meta_arg_of_pericenter": 331.3493,
        "meta_mean_anomaly": 190.6658,
        "meta_ephemeris_type": 0,
        "meta_classification_type": "U",
        "meta_norad_cat_id": 34061,
        "meta_element_set_no": 999,
        "meta_rev_at_epoch": 88244,
        "meta_bstar": 0.00027493225,
        "meta_mean_motion_dot": 8.48e-06,
        "meta_mean_motion_ddot": 0,
        "tle_line1": "1 34061U 93036JY  25351.20319993  .00000848  00000+0  27493-3 0  9994",
        "tle_line2": "2 34061  74.0391 255.1389 0020673 331.3493 190.6658 14.40367208882443"
      },
      "geometry": {
        "type": "Point",
        "coordinates": [
          75.844425218645,
          -6.94522575132709
        ]
      }
    },
    {
      "type": "Feature",
      "properties": {
        "norad_id": 34062,
        "name": "COSMOS 2251 DEB",
        "group": "cosmos-2251-debris",
        "lat": -54.92696741868945,
        "lon": 103.80435266982283,
        "alt_km": 644.4811579151728,
        "timestamp": "2025-12-17T21:39:46.083360+00:00",
        "meta_object_name": "COSMOS 2251 DEB",
        "meta_object_id": "1993-036JZ",
        "meta_epoch": "2025-12-17T12:31:27.977376",
        "meta_mean_motion": 14.78855805,
        "meta_eccentricity": 0.00740429,
        "meta_inclination": 74.0273,
        "meta_ra_of_asc_node": 128.629,
        "meta_arg_of_pericenter": 206.7215,
        "meta_mean_anomaly": 227.8352,
        "meta_ephemeris_type": 0,
        "meta_classification_type": "U",
        "meta_norad_cat_id": 34062,
        "meta_element_set_no": 999,
        "meta_rev_at_epoch": 88666,
        "meta_bstar": 0.0021680751,
        "meta_mean_motion_dot": 0.00016724,
        "meta_mean_motion_ddot": 0,
        "tle_line1": "1 34062U 93036JZ  25351.52185159  .00016724  00000+0  21681-2 0  9997",
        "tle_line2": "2 34062  74.0273 128.6290 0074042 206.7215 227.8352 14.78855805886662"
      },
      "geometry": {
        "type": "Point",
        "coordinates": [
          103.80435266982283,
          -54.92696741868945
        ]
      }
    },
    {
      "type": "Feature",
      "properties": {
        "norad_id": 34064,
        "name": "COSMOS 2251 DEB",
        "group": "cosmos-2251-debris",
        "lat": -16.922835059789296,
        "lon": 86.2878071457628,
        "alt_km": 765.3301852461836,
        "timestamp": "2025-12-17T21:39:46.083370+00:00",
        "meta_object_name": "COSMOS 2251 DEB",
        "meta_object_id": "1993-036KB",
        "meta_epoch": "2025-12-17T00:51:04.048992",
        "meta_mean_motion": 14.42353797,
        "meta_eccentricity": 0.00222513,
        "meta_inclination": 74.0331,
        "meta_ra_of_asc_node": 262.8984,
        "meta_arg_of_pericenter": 328.8327,
        "meta_mean_anomaly": 48.0228,
        "meta_ephemeris_type": 0,
        "meta_classification_type": "U",
        "meta_norad_cat_id": 34064,
        "meta_element_set_no": 999,
        "meta_rev_at_epoch": 88204,
        "meta_bstar": 0.00040362988,
        "meta_mean_motion_dot": 1.311e-05,
        "meta_mean_motion_ddot": 0,
        "tle_line1": "1 34064U 93036KB  25351.03546353  .00001311  00000+0  40363-3 0  9997",
        "tle_line2": "2 34064  74.0331 262.8984 0022251 328.8327  48.0228 14.42353797882042"
      },
      "geometry": {
        "type": "Point",
        "coordinates": [
          86.2878071457628,
          -16.922835059789296
        ]
      }
    },
    {
      "type": "Feature",
      "properties": {
        "norad_id": 34065,
        "name": "COSMOS 2251 DEB",
        "group": "cosmos-2251-debris",
        "lat": 45.964391092534854,
        "lon": 51.39050144909368,
        "alt_km": 770.3841679180496,
        "timestamp": "2025-12-17T21:39:46.083379+00:00",
        "meta_object_name": "COSMOS 2251 DEB",
        "meta_object_id": "1993-036KC",
        "meta_epoch": "2025-12-17T03:13:07.453056",
        "meta_mean_motion": 14.38067512,
        "meta_eccentricity": 0.00165587,
        "meta_inclination": 74.0355,
        "meta_ra_of_asc_node": 250.0268,
        "meta_arg_of_pericenter": 346.6989,
        "meta_mean_anomaly": 127.7572,
        "meta_ephemeris_type": 0,
        "meta_classification_type": "U",
        "meta_norad_cat_id": 34065,
        "meta_element_set_no": 999,
        "meta_rev_at_epoch": 88268,
        "meta_bstar": 0.00014344203,
        "meta_mean_motion_dot": 4.09e-06,
        "meta_mean_motion_ddot": 0,
        "tle_line1": "1 34065U 93036KC  25351.13411404  .00000409  00000+0  14344-3 0  9994",
        "tle_line2": "2 34065  74.0355 250.0268 0016558 346.6989 127.7572 14.38067512882687"
      },
      "geometry": {
        "type": "Point",
        "coordinates": [
          51.39050144909368,
          45.964391092534854
        ]
      }
    }
  ]
}